[{"OBJECT_NAME":"SHIYAN-1 (SY-1)","OBJECT_ID":"2004-012A","EPOCH":"2026-03-09T17:40:34.066560","MEAN_MOTION":15.31043463,"ECCENTRICITY":0.00058726,"INCLINATION":97.8764,"RA_OF_ASC_NODE":140.5238,"ARG_OF_PERICENTER":23.6952,"MEAN_ANOMALY":336.4557,"EPHEMERIS_TYPE":0,"CLASSIFICATION_TYPE":"U","NORAD_CAT_ID":28220,"ELEMENT_SET_NO":999,"REV_AT_EPOCH":19586,"BSTAR":0.00054854449,"MEAN_MOTION_DOT":0.00016393,"MEAN_MOTION_DDOT":0},{"OBJECT_NAME":"STARLINK-32719","OBJECT_ID":"2024-251S","EPOCH":"2026-03-09T21:33:58.629600","MEAN_MOTION":15.30222499,"ECCENTRICITY":0.00012685,"INCLINATION":53.1595,"RA_OF_ASC_NODE":334.6686,"ARG_OF_PERICENTER":110.6576,"MEAN_ANOMALY":249.4561,"EPHEMERIS_TYPE":0,"CLASSIFICATION_TYPE":"U","NORAD_CAT_ID":62448,"ELEMENT_SET_NO":999,"REV_AT_EPOCH":6780,"BSTAR":0.0012108595,"MEAN_MOTION_DOT":0.000357,"MEAN_MOTION_DDOT":0}]
